[{"OBJECT_NAME":"ONEWEB-0589","OBJECT_ID":"2022-166P","EPOCH":"2026-03-09T13:56:01.977216","MEAN_MOTION":13.21824859,"ECCENTRICITY":8.7e-5,"INCLINATION":87.916,"RA_OF_ASC_NODE":263.8476,"ARG_OF_PERICENTER":68.4854,"MEAN_ANOMALY":291.6373,"EPHEMERIS_TYPE":0,"CLASSIFICATION_TYPE":"U","NORAD_CAT_ID":54655,"ELEMENT_SET_NO":999,"REV_AT_EPOCH":15838,"BSTAR":-0.0003677,"MEAN_MOTION_DOT":-1.39e-6,"MEAN_MOTION_DDOT":0},{"OBJECT_NAME":"SL-14 DEB","OBJECT_ID":"1991-056BH","EPOCH":"2026-03-06T06:58:20.374176","MEAN_MOTION":13.39289459,"ECCENTRICITY":0.00884722,"INCLINATION":82.5817,"RA_OF_ASC_NODE":164.9984,"ARG_OF_PERICENTER":131.5414,"MEAN_ANOMALY":229.3353,"EPHEMERIS_TYPE":0,"CLASSIFICATION_TYPE":"U","NORAD_CAT_ID":45319,"ELEMENT_SET_NO":999,"REV_AT_EPOCH":29347,"BSTAR":0.003041541,"MEAN_MOTION_DOT":1.688e-5,"MEAN_MOTION_DDOT":0}]
